H2SAT (HEINRICH HERTZ)  
1 57213U 23093A   26038.05386809  .00000006  00000+0  00000+0 0  9997
2 57213   0.0141 104.1292 0000920 357.5441  55.5734  1.00274863  9611
KUZGTU 1 (RS47S)        
1 57217U 23091AV  26038.65805235  .00017315  00000+0  66198-3 0  9999
2 57217  97.5245 102.0133 0011642 187.8188 172.2871 15.26603577144594
QIANKUN-1               
1 57422U 23103B   26038.64133094  .00025931  19804-5  31953-4 0  9990
2 57422  96.2069  92.0492 0021213  70.6572 289.7005 16.07708199146488
FENGYUN 3F              
1 57490U 23111A   26038.59881639  .00000100  00000+0  67719-4 0  9995
2 57490  98.6986 110.9512 0001486  98.7805 261.3540 14.19912182130472
HJ-2F                   
1 57519U 23116A   26038.61185131  .00010792  00000+0  50047-3 0  9992
2 57519  97.3879  46.2645 0010612 128.4421 231.7768 15.20183771139058
XRISM                   
1 57800U 23137A   26038.58987062  .00008012  00000+0  46043-3 0  9990
2 57800  31.0018 118.2882 0008054  98.2851 261.8701 15.11124523133237
METEOR-M2 4             
1 59051U 24039A   26038.61276743  .00000067  00000+0  49647-4 0  9999
2 59051  98.6851 359.6546 0006977 176.0795 184.0439 14.22412328100842
GRBBETA                 
1 60237U 24128C   26038.28943588  .00006847  00000+0  47378-3 0  9997
2 60237  61.9913 311.6285 0053874 108.0097 252.6876 15.05434974 86706
TRANSPORTER-11A         
1 60468U 24149A   26038.61196821  .00012246  00000+0  41784-3 0  9998
2 60468  97.3832 119.1193 0002673 344.9685  15.1476 15.30478158 82220
WARATAH SEED-1          
1 60469U 24149B   26038.58156115  .00017108  00000+0  54890-3 0  9991
2 60469  97.3799 119.3215 0001489   3.2907 356.8345 15.32390170 82247
PHISAT 2                
1 60470U 24149C   26038.23088750  .00011234  00000+0  40166-3 0  9999
2 60470  97.3859 118.3135 0001669  36.2026 323.9327 15.28977045 82123
LEMUR-2-TOMATOKECHUP    
1 60471U 24149D   26038.60758174  .00015053  00000+0  47506-3 0  9993
2 60471  97.3891 120.5684 0001605  25.4711 334.6610 15.32946805 82292
CONNECTA IOT-1          
1 60472U 24149E   26038.60327452  .00006013  00000+0  26182-3 0  9998
2 60472  97.3870 117.1149 0002666  47.3032 312.8428 15.22585961 82077
LOPEN                   
1 60473U 24149F   26038.30773017  .00022947  00000+0  66548-3 0  9992
2 60473  97.3866 121.0110 0001754  41.6226 318.5151 15.35537893 82301
ROCK                    
1 60474U 24149G   26038.62104449  .00020421  00000+0  59195-3 0  9990
2 60474  97.3865 121.3455 0001852  28.5612 331.5733 15.35575494 82353
CONNECTA IOT-3          
1 60475U 24149H   26038.62627310  .00006695  00000+0  29082-3 0  9997
2 60475  97.3848 116.9291 0003298  28.6266 331.5151 15.22623598 82084
QUBE                    
1 60476U 24149J   26038.62964281  .00031086  00000+0  75826-3 0  9998
2 60476  97.3859 123.1439 0001766   4.5904 355.5359 15.40823986 82473
SATORO-T2               
1 60477U 24149K   26038.32294475  .00381329  00000+0  17609-2 0  9999
2 60477  97.3723 129.5790 0004940 265.6098  94.4607 15.82530357 82888
WREN-1                  
1 60478U 24149L   26038.28288279  .00028346  00000+0  80725-3 0  9997
2 60478  97.3855 121.5147 0004786  21.5253 338.6192 15.36056804 82345
TOMORROW-S1             
1 60479U 24149M   26038.52675073  .00011522  00000+0  39155-3 0  9996
2 60479  97.3842 119.5556 0002606  21.1871 338.9477 15.30626718 82243
FLOCK 4BE-18            
1 60480U 24149N   26038.61118791  .00024869  00000+0  68830-3 0  9997
2 60480  97.3821 121.3915 0004121  13.8670 346.2687 15.36976769 82370
FLOCK 4BE-7             
1 60481U 24149P   26038.58878724  .00019581  00000+0  57427-3 0  9998
2 60481  97.3853 121.0314 0003010  24.4925 335.6461 15.35215354 82336
FLOCK 4BE-16            
1 60483U 24149R   26038.61409843  .00224212  00000+0  29538-2 0  9996
2 60483  97.3793 122.8825 0003430 309.8056  50.2897 15.57662498 82464
FLOCK 4BE-26            
1 60484U 24149S   26038.30908655  .00104364  00000+0  26786-2 0  9995
2 60484  97.3818 120.8403 0004685 350.3096   9.8059 15.38911794 82310
TOMORROW-S2             
1 60485U 24149T   26038.28263489  .00011220  00000+0  38712-3 0  9993
2 60485  97.3911 119.7160 0003323  33.3108 326.8341 15.30136411 82203
FLOCK 4BE-36            
1 60486U 24149U   26038.59162389  .00027053  00000+0  72899-3 0  9990
2 60486  97.3830 121.8762 0004119  24.8853 335.2590 15.37791335 82403
FLOCK 4BE-25            
1 60487U 24149V   26038.59757729  .00018849  00000+0  55738-3 0  9995
2 60487  97.3886 121.1864 0002358  27.7815 332.3554 15.34964863 82339
FLOCK 4BE-31            
1 60488U 24149W   26038.24992102  .00029251  00000+0  77034-3 0  9996
2 60488  97.3886 122.0984 0003004  28.9205 331.2206 15.38488003 82364
FLOCK 4BE-20            
1 60489U 24149X   26038.62734206  .00017628  00000+0  53242-3 0  9998
2 60489  97.3794 120.4148 0003648  27.7757 332.3680 15.34304894 82325
FLOCK 4BE-23            
1 60490U 24149Y   26038.58724718  .00016815  00000+0  51332-3 0  9997
2 60490  97.3874 120.6800 0003701  34.7575 325.3909 15.33976379 82305
FLOCK 4BE-15            
1 60491U 24149Z   26038.60122423  .00022165  00000+0  59348-3 0  9996
2 60491  97.3812 121.5750 0004149  54.8229 305.3404 15.38028433 82399
FLOCK 4BE-17            
1 60492U 24149AA  26038.20737613  .00020376  00000+0  59131-3 0  9998
2 60492  97.3868 120.9061 0003092  26.6901 333.4501 15.35538955 82289
NUSAT-50 (NANCY ROMAN)  
1 60493U 24149AB  26038.59060141  .00015131  00000+0  52223-3 0  9994
2 60493  97.3867 120.7306 0004359  34.1288 326.0232 15.30049862 82310
FLOCK 4BE-22            
1 60494U 24149AC  26038.61811508  .00022129  00000+0  62281-3 0  9999
2 60494  97.3823 121.3414 0004260  32.0822 328.0681 15.36477727 82379
FLOCK 4BE-34            
1 60495U 24149AD  26038.58168828  .00021240  00000+0  59027-3 0  9993
2 60495  97.3871 122.0208 0003930  43.5194 316.6360 15.36883578 82398
TYCHE                   
1 60496U 24149AE  26038.62369153  .00007695  00000+0  29834-3 0  9994
2 60496  97.3860 118.1171 0003730  54.3316 305.8270 15.26404745 82143
FLOCK 4BE-32            
1 60497U 24149AF  26038.60715208  .00025054  00000+0  68921-3 0  9998
2 60497  97.3811 121.5580 0004275  33.9486 326.2031 15.37164986 82399
NUSAT-48 (HENRIETTA LE*)
1 60498U 24149AG  26038.57791089  .00013546  00000+0  48241-3 0  9992
2 60498  97.3970 120.7638 0004700  32.8932 327.2599 15.29050354 82325
FLOCK 4BE-30            
1 60499U 24149AH  26038.61570494  .00023994  00000+0  66217-3 0  9994
2 60499  97.3891 122.1021 0003602  35.3189 324.8294 15.37076405 81779
NUSAT-49 (KLARA DAN VO*)
1 60500U 24149AJ  26038.58820969  .00014238  00000+0  49374-3 0  9994
2 60500  97.3867 120.6978 0003314  52.4119 307.7422 15.29913378 82316
FLOCK 4BE-11            
1 60501U 24149AK  26038.21557905  .00028506  00000+0  76530-3 0  9999
2 60501  97.3790 121.2665 0004482  31.2787 328.8724 15.37893365 82349
FLOCK 4BE-33            
1 60502U 24149AL  26038.62874808  .00188976  00000+0  28782-2 0  9992
2 60502  97.3759 122.0110 0003115 333.1179  26.9913 15.53827538 82422
FLOCK 4BE-10            
1 60503U 24149AM  26038.31931870  .00282294  00000+0  32003-2 0  9991
2 60503  97.3813 122.9670 0004213 304.7637  55.3223 15.61447490 82432
YAM-7                   
1 60504U 24149AN  26038.30648869  .00011357  00000+0  39646-3 0  9995
2 60504  97.3881 119.2273 0004476  52.4382 307.7265 15.29747868 82189
FLOCK 4BE-24            
1 60505U 24149AP  26038.58560681  .00029648  00000+0  79674-3 0  9998
2 60505  97.3806 121.8839 0004437  41.0093 319.1485 15.37856107 82417
LUR-1                   
1 60506U 24149AQ  26038.28607072  .00011310  00000+0  41491-3 0  9995
2 60506  97.3845 118.1825 0005341  57.4590 302.7164 15.28117369 82123
TANAGER-4001            
1 60507U 24149AR  26038.22389942  .00026252  00000+0  58433-3 0  9998
2 60507  97.3821 131.1724 0007301 236.7422 123.3127 15.43584493 82988
EAGLEEYE                
1 60508U 24149AS  26038.19964902  .00063342  00000+0  10148-2 0  9991
2 60508  97.3821 126.2288 0003019  25.7043 334.4360 15.52889071 82654
FLOCK 4BE-29            
1 60509U 24149AT  26038.31089701  .00030425  00000+0  78863-3 0  9996
2 60509  97.3892 122.6636 0003692  51.1613 308.9961 15.38966657 82409
TRANSPORTER-11AU        
1 60510U 24149AU  26038.61019827  .00019300  00000+0  54880-3 0  9995
2 60510  97.3820 121.6361 0004467  48.6682 311.4945 15.36183865 82393
FLOCK 4BE-2             
1 60511U 24149AV  26038.25316508  .00047239  00000+0  11698-2 0  9993
2 60511  97.3899 123.0898 0003607  44.0841 316.0692 15.40269006 82424
FLOCK 4BE-13            
1 60512U 24149AW  26038.58618589  .00024809  00000+0  67339-3 0  9996
2 60512  97.3805 121.9987 0004958  26.8416 333.3085 15.37579091 82426
FLOCK 4BE-27            
1 60513U 24149AX  26038.45098022  .00014934  00000+0  48714-3 0  9991
2 60513  97.3912 120.4359 0004949  58.4804 301.6920 15.31878792 82267
FLOCK 4BE-9             
1 60514U 24149AY  26038.22319543  .00022961  00000+0  64622-3 0  9996
2 60514  97.3876 121.6073 0003632  64.2097 295.9521 15.36473359 82335
FLOCK 4BE-8             
1 60515U 24149AZ  26038.60329634  .00179598  00000+0  17814-2 0  9990
2 60515  97.3752 123.7420 0003649 281.6754  78.4096 15.65210683 82535
FLOCK 4BE-6             
1 60516U 24149BA  26038.61924230  .00019650  00000+0  56984-3 0  9999
2 60516  97.3880 121.5727 0004204  55.3340 304.8299 15.35564841 82366
FLOCK 4BE-14            
1 60517U 24149BB  26038.31214321  .00024359  00000+0  68351-3 0  9993
2 60517  97.3787 121.3254 0005121  53.9147 306.2571 15.36548994 82354
FLOCK 4BE-1             
1 60518U 24149BC  26038.44780122  .00025644  00000+0  69336-3 0  9997
2 60518  97.3864 122.3196 0004774  48.7586 311.4070 15.37694251 82406
FLOCK 4BE-28            
1 60519U 24149BD  26038.31724109  .00030502  00000+0  77591-3 0  9998
2 60519  97.3832 122.5470 0005104  45.2594 314.9066 15.39536614 82423
